ONEWEB-0338             
1 49204U 21083U   24061.77748769  .00000101  00000+0  21554-3 0  9992
2 49204  87.9125  81.1254 0001891  78.0928 282.0417 13.20771409126273
ONEWEB-0339             
1 49205U 21083V   24061.70589659  .00000190  00000+0  48452-3 0  9991
2 49205  87.8968 126.9527 0001788 103.7758 256.3570 13.13470962120956
ONEWEB-0340             
1 49206U 21083W   24061.76113636 -.00000024  00000+0 -94750-4 0  9997
2 49206  87.9226 142.1269 0001919 110.1797 249.9542 13.18687063119603
ONEWEB-0342             
1 49208U 21083Y   24061.78379894  .00000083  00000+0  17298-3 0  9995
2 49208  87.9116  81.1432 0001944  85.1228 275.0127 13.20771496126249
ONEWEB-0343             
1 49209U 21083Z   24061.76429843 -.00000015  00000+0 -70728-4 0  9999
2 49209  87.9216 142.1549 0001241 107.5373 252.5895 13.18688486119672
ONEWEB-0344             
1 49210U 21083AA  24061.67256709 -.00000356  00000+0 -10108-2 0  9992
2 49210  87.8972 126.9736 0002015 108.6084 251.5264 13.13468279120954
ONEWEB-0345             
1 49211U 21083AB  24061.69003438  .00000111  00000+0  26912-3 0  9992
2 49211  87.8967 126.9483 0001746 119.5344 240.5959 13.13469811120961
